LOGSATS                 
1 62689U 25009CJ  26068.72615147  .00266017  00000+0  19541-2 0  9995
2 62689  97.3907 158.8419 0005393 263.6729  96.3920 15.72310294 64215
STARLINK-11412 [DTC]    
1 63062U 25035L   26068.26299389  .00310812  00000+0  23360-2 0  9992
2 63062  42.9998  17.9209 0001736 294.9441  65.1247 15.70842985 61155
